{
"type": "FeatureCollection",
"name": "ITS_Buncitan",
"crs": { "type": "name", "properties": { "name": "urn:ogc:def:crs:OGC:1.3:CRS84" } },
"features": [
{ "type": "Feature", "properties": { "Id": 0, "LUAS": 85682.343015399994 }, "geometry": { "type": "MultiPolygon", "coordinates": [ [ [ [ 112.778590296238249, -7.396189569509232 ], [ 112.779349798321576, -7.396266917811466 ], [ 112.779385464240306, -7.395721315854247 ], [ 112.77949014813295, -7.395723194513578 ], [ 112.779475147977848, -7.396004950019075 ], [ 112.780670623356073, -7.396080891958676 ], [ 112.78059826329185, -7.397069492492821 ], [ 112.780589237019299, -7.397192811786064 ], [ 112.780578174555345, -7.397343950116686 ], [ 112.780566702083732, -7.397500690149962 ], [ 112.780552034836717, -7.397701078177006 ], [ 112.780543247806222, -7.397821129097769 ], [ 112.780531515347789, -7.397956679188161 ], [ 112.780511170469993, -7.398114738080625 ], [ 112.780498732248716, -7.398266741769516 ], [ 112.780491947557138, -7.398353060462703 ], [ 112.780485095385302, -7.398440237695446 ], [ 112.780467632611519, -7.398662409130224 ], [ 112.780459071471768, -7.398784022715619 ], [ 112.780458136655454, -7.399028992841911 ], [ 112.780452078406881, -7.399210705331452 ], [ 112.780448092038441, -7.39939265496464 ], [ 112.780442989163362, -7.399554391448499 ], [ 112.78002482058271, -7.399519964688047 ], [ 112.779700880018595, -7.399493295202605 ], [ 112.779373610165464, -7.399466351374987 ], [ 112.778851860055212, -7.399422132183206 ], [ 112.778455546126182, -7.399388383597756 ], [ 112.778407095741088, -7.399374748904919 ], [ 112.778386872983148, -7.399354722435792 ], [ 112.77836088255475, -7.39932898427453 ], [ 112.77836482406299, -7.399267758193025 ], [ 112.778387999140065, -7.398919322408731 ], [ 112.778397350149874, -7.398764968849505 ], [ 112.778424841019159, -7.398353008931855 ], [ 112.778446382599142, -7.397987386770358 ], [ 112.778462864167224, -7.397794409748144 ], [ 112.778470079145393, -7.397585393771788 ], [ 112.778491709705079, -7.397241971362745 ], [ 112.77856135750126, -7.396431316532831 ], [ 112.778590296238249, -7.396189569509232 ] ] ] ] } }
]
}
