{
"type": "FeatureCollection",
"name": "ITS_Manyar",
"crs": { "type": "name", "properties": { "name": "urn:ogc:def:crs:OGC:1.3:CRS84" } },
"features": [
{ "type": "Feature", "properties": { "Id": 0, "LUAS": 15596.468471100001 }, "geometry": { "type": "MultiPolygon", "coordinates": [ [ [ [ 112.764423005032157, -7.286198309133818 ], [ 112.764301320041454, -7.287429373162968 ], [ 112.763620033302161, -7.28730801471928 ], [ 112.763432559003164, -7.287204633679256 ], [ 112.76315515906245, -7.286063543931493 ], [ 112.764423005032157, -7.286198309133818 ] ] ] ] } }
]
}
