{
"type": "FeatureCollection",
"name": "REIDI",
"crs": { "type": "name", "properties": { "name": "urn:ogc:def:crs:OGC:1.3:CRS84" } },
"features": [
{ "type": "Feature", "properties": { "Id": 0, "Luas": 14502.3753641 }, "geometry": { "type": "MultiPolygon", "coordinates": [ [ [ [ 112.790409521644648, -7.281633266394877 ], [ 112.790520355591099, -7.281636617235833 ], [ 112.790650716053449, -7.281643756664034 ], [ 112.790708227908837, -7.281646878255867 ], [ 112.790748005343445, -7.281648634663677 ], [ 112.790845298428209, -7.281654469526084 ], [ 112.790955051430217, -7.281660733509129 ], [ 112.790999139354469, -7.281661994386909 ], [ 112.791079658222188, -7.281666938680135 ], [ 112.791190842982758, -7.281671761589596 ], [ 112.791261767358478, -7.281673873125651 ], [ 112.791251576807483, -7.281882995887534 ], [ 112.791235271877397, -7.282145155054833 ], [ 112.791214927146001, -7.282427712162179 ], [ 112.791192455720363, -7.282753912283277 ], [ 112.791173928558791, -7.283027594936189 ], [ 112.790772088619917, -7.283000095706946 ], [ 112.790271329537404, -7.282967628853805 ], [ 112.790409521644648, -7.281633266394877 ] ] ] ] } }
]
}
