{
"type": "FeatureCollection",
"name": "Rooftop",
"crs": { "type": "name", "properties": { "name": "urn:ogc:def:crs:OGC:1.3:CRS84" } },
"features": [
{ "type": "Feature", "properties": { "id": 1, "Id": 0, "Luas": 385.62801143600001 }, "geometry": { "type": "MultiPolygon", "coordinates": [ [ [ [ 112.79520616935622, -7.285154377840887 ], [ 112.795370619160195, -7.285154490700744 ], [ 112.795370888850343, -7.285222237920671 ], [ 112.795493947098777, -7.285224428802238 ], [ 112.795494472136966, -7.285260023275139 ], [ 112.795426623465616, -7.285260292578164 ], [ 112.795426447368556, -7.28531234845891 ], [ 112.79522557088481, -7.285309700889405 ], [ 112.79522645576148, -7.285243097358514 ], [ 112.795220707397107, -7.285243502930432 ], [ 112.795220622078006, -7.285222068780039 ], [ 112.795204137543038, -7.285221751441862 ], [ 112.79520616935622, -7.285154377840887 ] ] ] ] } },
{ "type": "Feature", "properties": { "id": 2, "Id": 0, "Luas": 1614.82379414 }, "geometry": { "type": "MultiPolygon", "coordinates": [ [ [ [ 112.793841333059063, -7.284881622091658 ], [ 112.794383018081845, -7.284890956543321 ], [ 112.794379966227666, -7.285135551590403 ], [ 112.793837124080099, -7.285124499378756 ], [ 112.793841333059063, -7.284881622091658 ] ] ] ] } },
{ "type": "Feature", "properties": { "id": 3, "Id": 0, "Luas": 801.70674459099996 }, "geometry": { "type": "MultiPolygon", "coordinates": [ [ [ [ 112.794809878214366, -7.28260667843539 ], [ 112.794847988285525, -7.28264700402525 ], [ 112.794656096637411, -7.282830915234982 ], [ 112.794944206965013, -7.283129472627857 ], [ 112.795000626087827, -7.283074705685297 ], [ 112.795009284002845, -7.283082996343414 ], [ 112.795059393113888, -7.283031986326663 ], [ 112.795082488502317, -7.283056008508419 ], [ 112.795117725638491, -7.283024578184857 ], [ 112.795146597161335, -7.283055180036356 ], [ 112.795123116399338, -7.283078812856316 ], [ 112.795130334566409, -7.283086535085259 ], [ 112.795069330421981, -7.283145052128451 ], [ 112.795083769042108, -7.283161070716854 ], [ 112.79498840848062, -7.283255607690514 ], [ 112.794577606492922, -7.282830078251107 ], [ 112.794809878214366, -7.28260667843539 ] ] ] ] } },
{ "type": "Feature", "properties": { "id": 4, "Id": 0, "Luas": 91.003448143 }, "geometry": { "type": "MultiPolygon", "coordinates": [ [ [ [ 112.794890751353066, -7.28265151937499 ], [ 112.794919386883137, -7.282622813705785 ], [ 112.794911582322129, -7.282612223105384 ], [ 112.794945671759564, -7.282581371490763 ], [ 112.794999372689162, -7.282638285230663 ], [ 112.794992501415379, -7.282645489215116 ], [ 112.795016455828176, -7.282668646791373 ], [ 112.794987254911746, -7.282699766089201 ], [ 112.794951755102275, -7.282665171543568 ], [ 112.794926784405391, -7.282690073365522 ], [ 112.794890751353066, -7.28265151937499 ] ] ] ] } },
{ "type": "Feature", "properties": { "id": 5, "Id": 0, "Luas": 2019.27487191 }, "geometry": { "type": "MultiPolygon", "coordinates": [ [ [ [ 112.795238061760287, -7.28156307480632 ], [ 112.795491053573471, -7.281320933187673 ], [ 112.795820130929513, -7.28165549830243 ], [ 112.795619648085221, -7.281847673135055 ], [ 112.795568120349031, -7.281903377592299 ], [ 112.795238061760287, -7.28156307480632 ] ] ] ] } },
{ "type": "Feature", "properties": { "id": 6, "Id": 0, "Luas": 1770.3906375500001 }, "geometry": { "type": "MultiPolygon", "coordinates": [ [ [ [ 112.792785730407829, -7.282604236410667 ], [ 112.792811732615149, -7.282491602169581 ], [ 112.793127117014961, -7.282563842324013 ], [ 112.793217608739141, -7.282184552142385 ], [ 112.792897620173349, -7.282111181953011 ], [ 112.792924767760837, -7.281997394901302 ], [ 112.793349517674415, -7.282099056890672 ], [ 112.793212771744052, -7.282703592762982 ], [ 112.792785730407829, -7.282604236410667 ] ] ] ] } },
{ "type": "Feature", "properties": { "id": 7, "Id": 0, "Luas": 146.94182616800001 }, "geometry": { "type": "MultiPolygon", "coordinates": [ [ [ [ 112.797520765912623, -7.281173799653501 ], [ 112.797527012301359, -7.281081912847898 ], [ 112.797656130233491, -7.281090012097528 ], [ 112.797652184946784, -7.281182176827731 ], [ 112.797520765912623, -7.281173799653501 ] ] ] ] } },
{ "type": "Feature", "properties": { "id": 8, "Id": 0, "Luas": 500.07639501800003 }, "geometry": { "type": "MultiPolygon", "coordinates": [ [ [ [ 112.791125801834383, -7.277046975612537 ], [ 112.791127455568983, -7.276980703800122 ], [ 112.791139963359726, -7.276969075848333 ], [ 112.791158727890476, -7.276952351584407 ], [ 112.791228930897432, -7.276953987707675 ], [ 112.791230328911951, -7.276883650088272 ], [ 112.791159170463885, -7.276882735415954 ], [ 112.791158725043545, -7.276951633921257 ], [ 112.791139963359726, -7.276969075848333 ], [ 112.791127453671066, -7.276980225357994 ], [ 112.791063486244511, -7.276980239131623 ], [ 112.791065131897653, -7.276851529671962 ], [ 112.791130054758071, -7.276850794449183 ], [ 112.791130767280436, -7.276788832405643 ], [ 112.791260860142728, -7.276789274757175 ], [ 112.791261116376418, -7.276853864437505 ], [ 112.791287949695402, -7.27685399752467 ], [ 112.791286788001031, -7.276983901179484 ], [ 112.791258758698305, -7.276984251274373 ], [ 112.791257819911579, -7.277049563355556 ], [ 112.791125801834383, -7.277046975612537 ] ] ] ] } },
{ "type": "Feature", "properties": { "id": 9, "Id": 0, "Luas": 313.31155852699999 }, "geometry": { "type": "MultiPolygon", "coordinates": [ [ [ [ 112.795089982816208, -7.280454323434925 ], [ 112.795093561461968, -7.280293933292083 ], [ 112.795144166013614, -7.280295263641363 ], [ 112.79515109929774, -7.280303656839197 ], [ 112.795220598926477, -7.280236781176457 ], [ 112.795274869565191, -7.280292448722156 ], [ 112.795306954389631, -7.280263614559678 ], [ 112.795358152376778, -7.280317763243596 ], [ 112.795354348090257, -7.280325050749365 ], [ 112.795424809628216, -7.280403619577343 ], [ 112.795397335325305, -7.280435114772553 ], [ 112.79525801407047, -7.280295194884232 ], [ 112.795089982816208, -7.280454323434925 ] ] ] ] } },
{ "type": "Feature", "properties": { "id": 10, "Id": 0, "Luas": 151.08453157299999 }, "geometry": { "type": "MultiPolygon", "coordinates": [ [ [ [ 112.795530301723545, -7.280904691629646 ], [ 112.795689912012506, -7.28074865839309 ], [ 112.795685562402738, -7.280907903270215 ], [ 112.795530301723545, -7.280904691629646 ] ] ] ] } },
{ "type": "Feature", "properties": { "id": 11, "Id": 0, "Luas": 52.580750328500002 }, "geometry": { "type": "MultiPolygon", "coordinates": [ [ [ [ 112.79563635917556, -7.280680739797223 ], [ 112.79556516289027, -7.280610211870444 ], [ 112.795596478019306, -7.280580615222687 ], [ 112.795668063716221, -7.280652672634521 ], [ 112.79563635917556, -7.280680739797223 ] ] ] ] } },
{ "type": "Feature", "properties": { "id": 12, "Id": 0, "Luas": 36.4301803902 }, "geometry": { "type": "MultiPolygon", "coordinates": [ [ [ [ 112.795388646415205, -7.280659905185941 ], [ 112.795448205560291, -7.280599575812334 ], [ 112.795472461433434, -7.280626272709466 ], [ 112.795414426440985, -7.280684299487924 ], [ 112.795388646415205, -7.280659905185941 ] ] ] ] } },
{ "type": "Feature", "properties": { "id": 13, "Id": 0, "Luas": 32.914044321299997 }, "geometry": { "type": "MultiPolygon", "coordinates": [ [ [ [ 112.795312797007739, -7.280575999108478 ], [ 112.795367021628024, -7.280523728838247 ], [ 112.795392413753362, -7.280546976406058 ], [ 112.795338199793377, -7.280601925948419 ], [ 112.795312797007739, -7.280575999108478 ] ] ] ] } },
{ "type": "Feature", "properties": { "id": 14, "Id": 0, "Luas": 65.893276941400003 }, "geometry": { "type": "MultiPolygon", "coordinates": [ [ [ [ 112.79697671896318, -7.27982786565153 ], [ 112.79698063411162, -7.279800291501039 ], [ 112.797021304628757, -7.279761662828659 ], [ 112.797042576648607, -7.279761004247121 ], [ 112.797041877014649, -7.279874112144355 ], [ 112.797017145957497, -7.27987248790795 ], [ 112.79697671896318, -7.27982786565153 ] ] ] ] } },
{ "type": "Feature", "properties": { "id": 15, "Id": 0, "Luas": 159.85835061700001 }, "geometry": { "type": "MultiPolygon", "coordinates": [ [ [ [ 112.797437739416324, -7.279773214683065 ], [ 112.797457371267001, -7.279769787596424 ], [ 112.797490282154016, -7.279731859529999 ], [ 112.797608640039158, -7.279733303341044 ], [ 112.797608204715317, -7.279744309371646 ], [ 112.797549984587675, -7.279803868101521 ], [ 112.797503972758918, -7.279800701671193 ], [ 112.797504602439147, -7.279838496557772 ], [ 112.797463078261757, -7.279879329515484 ], [ 112.79743911689873, -7.27987846776305 ], [ 112.797437739416324, -7.279773214683065 ] ] ] ] } },
{ "type": "Feature", "properties": { "id": 16, "Id": 0, "Luas": 150.12216402799999 }, "geometry": { "type": "MultiPolygon", "coordinates": [ [ [ [ 112.797442862167316, -7.279337988113862 ], [ 112.797462012944052, -7.27933408449361 ], [ 112.797500503502235, -7.279373738536672 ], [ 112.797501480490311, -7.279426555310527 ], [ 112.797555154497104, -7.2794286387408 ], [ 112.797593596292543, -7.279456044698745 ], [ 112.797593727386584, -7.279488961395065 ], [ 112.79747872819199, -7.279488652503826 ], [ 112.797477885338353, -7.279469517932496 ], [ 112.797462467161807, -7.279448144682478 ], [ 112.797437937700138, -7.279449007592755 ], [ 112.797442862167316, -7.279337988113862 ] ] ] ] } },
{ "type": "Feature", "properties": { "id": 17, "Id": 0, "Luas": 63.873111628899998 }, "geometry": { "type": "MultiPolygon", "coordinates": [ [ [ [ 112.797034573273947, -7.279422667582768 ], [ 112.79702311023037, -7.27943189928849 ], [ 112.796975199392818, -7.279385010178055 ], [ 112.796973896289231, -7.279346548124953 ], [ 112.797024888998664, -7.279300988836634 ], [ 112.797030077539077, -7.279304413067017 ], [ 112.797034573273947, -7.279422667582768 ] ] ] ] } },
{ "type": "Feature", "properties": { "id": 18, "Id": 0, "Luas": 43.642280385 }, "geometry": { "type": "MultiPolygon", "coordinates": [ [ [ [ 112.793199587889745, -7.280393874645741 ], [ 112.793227614521115, -7.280392806717098 ], [ 112.793273797587659, -7.280439033307312 ], [ 112.793237755581472, -7.280472906751253 ], [ 112.793199037401692, -7.280436219565008 ], [ 112.793199587889745, -7.280393874645741 ] ] ] ] } },
{ "type": "Feature", "properties": { "id": 19, "Id": 0, "Luas": 38.2261069093 }, "geometry": { "type": "MultiPolygon", "coordinates": [ [ [ [ 112.793281317545919, -7.280964053442951 ], [ 112.793315435541871, -7.280964492402748 ], [ 112.793315543546257, -7.2809434402196 ], [ 112.793384745445252, -7.280946228100816 ], [ 112.793384260966448, -7.280969004191189 ], [ 112.793390396410018, -7.280969554019483 ], [ 112.793390848942877, -7.280986967768646 ], [ 112.793367848063625, -7.280986676145695 ], [ 112.793368012345397, -7.280979785829621 ], [ 112.793281568526652, -7.280978980057032 ], [ 112.793281317545919, -7.280964053442951 ] ] ] ] } },
{ "type": "Feature", "properties": { "id": 20, "Id": 0, "Luas": 63.780772721699996 }, "geometry": { "type": "MultiPolygon", "coordinates": [ [ [ [ 112.793604854663599, -7.281006991295359 ], [ 112.793604868034123, -7.280971777402785 ], [ 112.793596739769967, -7.280971350302294 ], [ 112.793596482994261, -7.280945323699105 ], [ 112.793629297838748, -7.280945806075453 ], [ 112.793628780060445, -7.280969845400159 ], [ 112.793753909322447, -7.280972564692629 ], [ 112.793754261622851, -7.280984046069288 ], [ 112.793871869238984, -7.280984651686268 ], [ 112.793871908798366, -7.280994603265366 ], [ 112.79364065881019, -7.280988017660551 ], [ 112.793640429435172, -7.281007462732762 ], [ 112.793604854663599, -7.281006991295359 ] ] ] ] } },
{ "type": "Feature", "properties": { "id": 21, "Id": 0, "Luas": 30.4178386229 }, "geometry": { "type": "MultiPolygon", "coordinates": [ [ [ [ 112.79389083247591, -7.28101068069576 ], [ 112.793891091620978, -7.280960155471679 ], [ 112.793948746976668, -7.280960845577885 ], [ 112.793958447481899, -7.28097106507213 ], [ 112.793915519665092, -7.281010889056237 ], [ 112.79389083247591, -7.28101068069576 ] ] ] ] } },
{ "type": "Feature", "properties": { "id": 22, "Id": 0, "Luas": 54.378538975600001 }, "geometry": { "type": "MultiPolygon", "coordinates": [ [ [ [ 112.793914750601544, -7.280490358911464 ], [ 112.793953085664057, -7.28049092465309 ], [ 112.793951590256754, -7.280536622442972 ], [ 112.793936016844114, -7.28053644494068 ], [ 112.793936922905232, -7.280583568559599 ], [ 112.793949620452281, -7.280583518235091 ], [ 112.793950287890638, -7.28063088202371 ], [ 112.793913866574457, -7.28062959102673 ], [ 112.793914750601544, -7.280490358911464 ] ] ] ] } },
{ "type": "Feature", "properties": { "id": 23, "Id": 0, "Luas": 41.210655902 }, "geometry": { "type": "MultiPolygon", "coordinates": [ [ [ [ 112.793847423441633, -7.280573445235074 ], [ 112.793848466875048, -7.280498420319433 ], [ 112.793865144430114, -7.280499119742974 ], [ 112.793865082088786, -7.280531654511901 ], [ 112.793912045897741, -7.280533190801853 ], [ 112.793911863407985, -7.280583715722395 ], [ 112.793896719138843, -7.280583010224597 ], [ 112.793896684145523, -7.280574206904601 ], [ 112.793847423441633, -7.280573445235074 ] ] ] ] } },
{ "type": "Feature", "properties": { "id": 24, "Id": 0, "Luas": 23.246910284599998 }, "geometry": { "type": "MultiPolygon", "coordinates": [ [ [ [ 112.79355569339377, -7.280026538045264 ], [ 112.793594982355089, -7.280025999614801 ], [ 112.793594411930982, -7.280075377804381 ], [ 112.793555115360121, -7.280074002470201 ], [ 112.793555256065815, -7.28006117948118 ], [ 112.79355569339377, -7.280026538045264 ] ] ] ] } },
{ "type": "Feature", "properties": { "id": 25, "Id": 0, "Luas": 39.727005976500003 }, "geometry": { "type": "MultiPolygon", "coordinates": [ [ [ [ 112.793597803270146, -7.280012400488037 ], [ 112.793720282935595, -7.280014020350671 ], [ 112.793719661565135, -7.280050576308599 ], [ 112.793646060741651, -7.280050102431064 ], [ 112.793645380801593, -7.280023694745105 ], [ 112.793598230703154, -7.280023498809562 ], [ 112.793597803270146, -7.280012400488037 ] ] ] ] } },
{ "type": "Feature", "properties": { "id": 26, "Id": 0, "Luas": 52.523178524899997 }, "geometry": { "type": "MultiPolygon", "coordinates": [ [ [ [ 112.794714717103489, -7.281536728618821 ], [ 112.794734194255199, -7.281518470333831 ], [ 112.794734157718636, -7.281509284265411 ], [ 112.794776918602466, -7.281466054318265 ], [ 112.794811742522228, -7.28149940761923 ], [ 112.7947416692069, -7.281566668310967 ], [ 112.794714717103489, -7.281536728618821 ] ] ] ] } },
{ "type": "Feature", "properties": { "id": 27, "Id": 0, "Luas": 53.578960200899999 }, "geometry": { "type": "MultiPolygon", "coordinates": [ [ [ [ 112.796752782202788, -7.281689767375583 ], [ 112.796797443848362, -7.281690738336388 ], [ 112.796797692665081, -7.281705090790944 ], [ 112.796818393605449, -7.281705391361365 ], [ 112.796818424850827, -7.281713237785723 ], [ 112.796790055173247, -7.281712393524355 ], [ 112.796790116138979, -7.281727703620921 ], [ 112.796818480482941, -7.281727208248645 ], [ 112.796818571171158, -7.281749982016909 ], [ 112.796839272875474, -7.281750473962064 ], [ 112.796839173427927, -7.281773631243415 ], [ 112.796788764984569, -7.281773448621918 ], [ 112.796786945535672, -7.281749724820698 ], [ 112.796753021488357, -7.281749859505822 ], [ 112.796752782202788, -7.281689767375583 ] ] ] ] } },
{ "type": "Feature", "properties": { "id": 28, "Id": 0, "Luas": 134.953506877 }, "geometry": { "type": "MultiPolygon", "coordinates": [ [ [ [ 112.796997495752265, -7.282733185593924 ], [ 112.797171441104425, -7.282735604696345 ], [ 112.797171214476748, -7.282798999951702 ], [ 112.79699727005287, -7.282796820075403 ], [ 112.796997495752265, -7.282733185593924 ] ] ] ] } },
{ "type": "Feature", "properties": { "id": 29, "Id": 0, "Luas": 45.295089458299998 }, "geometry": { "type": "MultiPolygon", "coordinates": [ [ [ [ 112.797370079663921, -7.28345172208276 ], [ 112.797369710461638, -7.283419189092128 ], [ 112.79748543587985, -7.283421121607542 ], [ 112.797484843921268, -7.283452940742662 ], [ 112.797370079663921, -7.28345172208276 ] ] ] ] } },
{ "type": "Feature", "properties": { "id": 30, "Id": 0, "Luas": 139.08999593199999 }, "geometry": { "type": "MultiPolygon", "coordinates": [ [ [ [ 112.797708775063072, -7.283734143908955 ], [ 112.798009222429343, -7.283737256062063 ], [ 112.798009598026155, -7.283759358854634 ], [ 112.798065951232189, -7.283760283177463 ], [ 112.79806627991799, -7.283770616341928 ], [ 112.79765284776461, -7.283767953160322 ], [ 112.797652800861414, -7.283756183530252 ], [ 112.797708859720061, -7.28375538665528 ], [ 112.797708775063072, -7.283734143908955 ] ] ] ] } },
{ "type": "Feature", "properties": { "id": 31, "Id": 0, "Luas": 67.540681669500003 }, "geometry": { "type": "MultiPolygon", "coordinates": [ [ [ [ 112.796349716576827, -7.285409253301071 ], [ 112.796350983084594, -7.285342265534082 ], [ 112.796434366334225, -7.285344422326212 ], [ 112.796433285403353, -7.285409878319507 ], [ 112.796349716576827, -7.285409253301071 ] ] ] ] } },
{ "type": "Feature", "properties": { "id": 32, "Id": 0, "Luas": 106.704850499 }, "geometry": { "type": "MultiPolygon", "coordinates": [ [ [ [ 112.796389384468654, -7.285340141827222 ], [ 112.796388751165395, -7.285325503829921 ], [ 112.796357405143013, -7.28532333176103 ], [ 112.796356699806779, -7.28529060871035 ], [ 112.796337439978856, -7.285291259331767 ], [ 112.79633726961481, -7.285248486745491 ], [ 112.7963579703422, -7.285248691609121 ], [ 112.796357849142851, -7.285218262789673 ], [ 112.796392063239296, -7.285218701057348 ], [ 112.7963926931114, -7.285232477861741 ], [ 112.796430648063236, -7.285233762477052 ], [ 112.796431643839526, -7.285339399864211 ], [ 112.796389384468654, -7.285340141827222 ] ] ] ] } },
{ "type": "Feature", "properties": { "id": 33, "Id": 0, "Luas": 22.936033783100001 }, "geometry": { "type": "MultiPolygon", "coordinates": [ [ [ [ 112.796360821268735, -7.285026106219305 ], [ 112.79639905798075, -7.285025954378238 ], [ 112.79639839559124, -7.285076194061116 ], [ 112.79636101678382, -7.285075194220855 ], [ 112.796360821268735, -7.285026106219305 ] ] ] ] } },
{ "type": "Feature", "properties": { "id": 34, "Id": 0, "Luas": 30.643374444799999 }, "geometry": { "type": "MultiPolygon", "coordinates": [ [ [ [ 112.796357585783781, -7.285152142304476 ], [ 112.796395821363134, -7.28515170339675 ], [ 112.796395224150899, -7.285218305746229 ], [ 112.796357849142851, -7.285218262789673 ], [ 112.796357585783781, -7.285152142304476 ] ] ] ] } },
{ "type": "Feature", "properties": { "id": 35, "Id": 0, "Luas": 19.997015800700002 }, "geometry": { "type": "MultiPolygon", "coordinates": [ [ [ [ 112.79572979208173, -7.284957522178681 ], [ 112.795729706360859, -7.284935992345861 ], [ 112.795805605950179, -7.284935978117875 ], [ 112.795805979168776, -7.284957506808503 ], [ 112.79572979208173, -7.284957522178681 ] ] ] ] } },
{ "type": "Feature", "properties": { "id": 36, "Id": 0, "Luas": 71.551050357299999 }, "geometry": { "type": "MultiPolygon", "coordinates": [ [ [ [ 112.795361701900433, -7.284452944288762 ], [ 112.795361799717895, -7.284405290440461 ], [ 112.795485431206913, -7.284407096344435 ], [ 112.795486192455954, -7.284453885573101 ], [ 112.795361701900433, -7.284452944288762 ] ] ] ] } },
{ "type": "Feature", "properties": { "id": 37, "Id": 0, "Luas": 71.767280629499993 }, "geometry": { "type": "MultiPolygon", "coordinates": [ [ [ [ 112.794261417544732, -7.283795519239202 ], [ 112.794325280837853, -7.283732971952482 ], [ 112.79437146365413, -7.283779006936697 ], [ 112.794305592475965, -7.283842710469656 ], [ 112.794261417544732, -7.283795519239202 ] ] ] ] } },
{ "type": "Feature", "properties": { "id": 38, "Id": 0, "Luas": 176.89148282 }, "geometry": { "type": "MultiPolygon", "coordinates": [ [ [ [ 112.794163093232939, -7.284550454661722 ], [ 112.794164750310969, -7.284388828119326 ], [ 112.794254170084301, -7.284390770039522 ], [ 112.794252515322469, -7.284552970703756 ], [ 112.794163093232939, -7.284550454661722 ] ] ] ] } },
{ "type": "Feature", "properties": { "id": 39, "Id": 0, "Luas": 68.964351632800003 }, "geometry": { "type": "MultiPolygon", "coordinates": [ [ [ [ 112.794465732396404, -7.284833213571638 ], [ 112.794469195395934, -7.284691961803365 ], [ 112.794508590090985, -7.284693815019812 ], [ 112.794506560006681, -7.284833912824597 ], [ 112.794465732396404, -7.284833213571638 ] ] ] ] } },
{ "type": "Feature", "properties": { "id": 40, "Id": 0, "Luas": 51.031968100100002 }, "geometry": { "type": "MultiPolygon", "coordinates": [ [ [ [ 112.790593958098725, -7.288985947928179 ], [ 112.790622947431203, -7.288985833118297 ], [ 112.790623355322893, -7.288967889646048 ], [ 112.790664088886174, -7.288968924445062 ], [ 112.7906627083118, -7.289043568035566 ], [ 112.790620778735814, -7.289043016424342 ], [ 112.79062094324469, -7.289024117016966 ], [ 112.790592666001686, -7.28902255443383 ], [ 112.790593958098725, -7.288985947928179 ] ] ] ] } },
{ "type": "Feature", "properties": { "id": 41, "Id": 0, "Luas": 91.044508913200005 }, "geometry": { "type": "MultiPolygon", "coordinates": [ [ [ [ 112.790834321847967, -7.288940739355822 ], [ 112.790876013729431, -7.288941770340403 ], [ 112.790875031566486, -7.288996078243437 ], [ 112.790898998243208, -7.288998136332976 ], [ 112.790899153163195, -7.289037129349004 ], [ 112.790871847553518, -7.289038912081207 ], [ 112.790870769400044, -7.2890690586672 ], [ 112.790870854938078, -7.289090588553648 ], [ 112.790826528598899, -7.289089807231599 ], [ 112.790834321847967, -7.288940739355822 ] ] ] ] } },
{ "type": "Feature", "properties": { "id": 42, "Id": 0, "Luas": 41.912886235400002 }, "geometry": { "type": "MultiPolygon", "coordinates": [ [ [ [ 112.791158557121022, -7.288972133070646 ], [ 112.79115932721885, -7.288948877379992 ], [ 112.791179738393552, -7.288948509448645 ], [ 112.791180303122218, -7.288945923584744 ], [ 112.791182479907732, -7.28891491144164 ], [ 112.791216697798674, -7.288916211229106 ], [ 112.791215869488596, -7.288997168143148 ], [ 112.791177624346062, -7.288995310172564 ], [ 112.791177818307148, -7.288971769694975 ], [ 112.791158557121022, -7.288972133070646 ] ] ] ] } },
{ "type": "Feature", "properties": { "id": 43, "Id": 0, "Luas": 41.212279991400003 }, "geometry": { "type": "MultiPolygon", "coordinates": [ [ [ [ 112.791151066126218, -7.289112826864685 ], [ 112.791151264649983, -7.289090434647304 ], [ 112.791170239484416, -7.289090359474774 ], [ 112.791170741474716, -7.289071985030081 ], [ 112.791208120709385, -7.289072985221376 ], [ 112.791207280997014, -7.289151071484305 ], [ 112.791170482454405, -7.28915150434206 ], [ 112.791170040961617, -7.289112751691934 ], [ 112.791151066126218, -7.289112826864685 ] ] ] ] } },
{ "type": "Feature", "properties": { "id": 44, "Id": 0, "Luas": 53.804543087399999 }, "geometry": { "type": "MultiPolygon", "coordinates": [ [ [ [ 112.791162440097892, -7.288646963488428 ], [ 112.791162347707484, -7.288623711214353 ], [ 112.79113330706889, -7.288622965047613 ], [ 112.791134884914669, -7.28858592681421 ], [ 112.791165077820764, -7.288587242556065 ], [ 112.791165575253274, -7.288567719850628 ], [ 112.791206694190166, -7.288569279376738 ], [ 112.791205277181461, -7.288646793788829 ], [ 112.791162440097892, -7.288646963488428 ] ] ] ] } },
{ "type": "Feature", "properties": { "id": 45, "Id": 0, "Luas": 87.5929171306 }, "geometry": { "type": "MultiPolygon", "coordinates": [ [ [ [ 112.791374495555786, -7.288544213681092 ], [ 112.791417048549818, -7.288544906298069 ], [ 112.791415823248158, -7.2885983060969 ], [ 112.791442277547816, -7.288599349562565 ], [ 112.791442142917575, -7.28863781742081 ], [ 112.791410228451113, -7.288637369728098 ], [ 112.791409304337748, -7.28869421316876 ], [ 112.791370485370791, -7.288692644551642 ], [ 112.791374495555786, -7.288544213681092 ] ] ] ] } },
{ "type": "Feature", "properties": { "id": 46, "Id": 0, "Luas": 42.979924674599999 }, "geometry": { "type": "MultiPolygon", "coordinates": [ [ [ [ 112.791693832992394, -7.288693659905713 ], [ 112.791713957793093, -7.288693580157419 ], [ 112.791713868796592, -7.288671189085486 ], [ 112.791754119536307, -7.288671316651756 ], [ 112.791750394661634, -7.288746830701631 ], [ 112.791750125420705, -7.288751424881219 ], [ 112.791712170087251, -7.288750139942062 ], [ 112.791711449046545, -7.288713397897527 ], [ 112.791692468528737, -7.288712037763752 ], [ 112.791693832992394, -7.288693659905713 ] ] ] ] } },
{ "type": "Feature", "properties": { "id": 47, "Id": 0, "Luas": 42.582746456499997 }, "geometry": { "type": "MultiPolygon", "coordinates": [ [ [ [ 112.791699961658082, -7.288571918131233 ], [ 112.791701309008133, -7.288549234297803 ], [ 112.791720859949152, -7.288549443894285 ], [ 112.79172217078758, -7.288517573980251 ], [ 112.79175897497197, -7.288518576415411 ], [ 112.791760435309556, -7.288596653543419 ], [ 112.791720469791784, -7.288595950706815 ], [ 112.791720952367413, -7.288572696161316 ], [ 112.791699961658082, -7.288571918131233 ] ] ] ] } },
{ "type": "Feature", "properties": { "id": 48, "Id": 0, "Luas": 87.8863764516 }, "geometry": { "type": "MultiPolygon", "coordinates": [ [ [ [ 112.790869652927086, -7.288257325738737 ], [ 112.790874818998788, -7.288110325601934 ], [ 112.79091583826542, -7.288110928660671 ], [ 112.790912986024082, -7.288164909056109 ], [ 112.790940979703223, -7.288167477498849 ], [ 112.790941907539846, -7.288208046337211 ], [ 112.790913915378638, -7.288205860648698 ], [ 112.790909146492595, -7.288259848635374 ], [ 112.790869652927086, -7.288257325738737 ] ] ] ] } },
{ "type": "Feature", "properties": { "id": 49, "Id": 0, "Luas": 42.025173651899998 }, "geometry": { "type": "MultiPolygon", "coordinates": [ [ [ [ 112.791192133245929, -7.288281310532745 ], [ 112.791193201111724, -7.288260637289226 ], [ 112.791212753946326, -7.28826132535265 ], [ 112.791213436961314, -7.288240270874299 ], [ 112.791252159298935, -7.288241648517457 ], [ 112.791252186673759, -7.288248538079938 ], [ 112.791250899731168, -7.28831055021628 ], [ 112.791245192374845, -7.288321290091679 ], [ 112.791212594174553, -7.288317591632432 ], [ 112.791212452739998, -7.288281995558986 ], [ 112.791192133245929, -7.288281310532745 ] ] ] ] } },
{ "type": "Feature", "properties": { "id": 50, "Id": 0, "Luas": 38.838787365100004 }, "geometry": { "type": "MultiPolygon", "coordinates": [ [ [ [ 112.791217332697542, -7.288159493186746 ], [ 112.791218409687886, -7.288141116464287 ], [ 112.791198855337854, -7.288140045646363 ], [ 112.791198771696386, -7.288118994204765 ], [ 112.791221012391091, -7.288120819900449 ], [ 112.791222016384808, -7.28808407101098 ], [ 112.791258053884164, -7.288085076532802 ], [ 112.791254523232183, -7.288161259658869 ], [ 112.791217332697542, -7.288159493186746 ] ] ] ] } },
{ "type": "Feature", "properties": { "id": 51, "Id": 0, "Luas": 53.163188764399997 }, "geometry": { "type": "MultiPolygon", "coordinates": [ [ [ [ 112.790659015573041, -7.288210442576422 ], [ 112.790660474395139, -7.288191681578127 ], [ 112.790630561024599, -7.288188355200806 ], [ 112.79063080904892, -7.288154288612212 ], [ 112.790662619299709, -7.288152631603195 ], [ 112.790662934215419, -7.288135406173351 ], [ 112.790705492887199, -7.288137534192972 ], [ 112.790703487858082, -7.288211797497186 ], [ 112.790659015573041, -7.288210442576422 ] ] ] ] } },
{ "type": "Feature", "properties": { "id": 52, "Id": 0, "Luas": 49.0760390087 }, "geometry": { "type": "MultiPolygon", "coordinates": [ [ [ [ 112.789955474720117, -7.288156005549949 ], [ 112.790040299656567, -7.288159018907502 ], [ 112.790037610858818, -7.288205917620236 ], [ 112.789952308651124, -7.288203384603295 ], [ 112.789955474720117, -7.288156005549949 ] ] ] ] } },
{ "type": "Feature", "properties": { "id": 53, "Id": 0, "Luas": 79.630255586499999 }, "geometry": { "type": "MultiPolygon", "coordinates": [ [ [ [ 112.790331141340033, -7.288155475204764 ], [ 112.790331523600415, -7.288131072761373 ], [ 112.790384708646556, -7.288130383730416 ], [ 112.79038267955535, -7.288222732535678 ], [ 112.79032899443601, -7.288218160603346 ], [ 112.790329374795704, -7.288193279717946 ], [ 112.790291996378699, -7.288192470812504 ], [ 112.790286235037627, -7.288189622925638 ], [ 112.790282848605557, -7.288181502689976 ], [ 112.790282803005965, -7.288170020079694 ], [ 112.790285166514934, -7.288161877078457 ], [ 112.790288971309025, -7.288154685270035 ], [ 112.790331141340033, -7.288155475204764 ] ] ] ] } },
{ "type": "Feature", "properties": { "id": 54, "Id": 0, "Luas": 43.124638229399999 }, "geometry": { "type": "MultiPolygon", "coordinates": [ [ [ [ 112.790030337596917, -7.287798147798924 ], [ 112.790029493434488, -7.287778630393255 ], [ 112.79000304068623, -7.287777969586043 ], [ 112.790003666015906, -7.287742370453349 ], [ 112.790033567204105, -7.287742634850684 ], [ 112.790034254838787, -7.287722728621651 ], [ 112.790066845407424, -7.287724513410209 ], [ 112.790062931210571, -7.287800698093887 ], [ 112.790030337596917, -7.287798147798924 ] ] ] ] } },
{ "type": "Feature", "properties": { "id": 55, "Id": 0, "Luas": 92.023481550900001 }, "geometry": { "type": "MultiPolygon", "coordinates": [ [ [ [ 112.790240782560417, -7.28770009373599 ], [ 112.79028525176372, -7.287700683203155 ], [ 112.790283929712814, -7.287753892035465 ], [ 112.790308468850725, -7.287755325922036 ], [ 112.790308626922794, -7.287795132304422 ], [ 112.790279106024656, -7.287794100901198 ], [ 112.79027702795662, -7.287849992044572 ], [ 112.790235237482605, -7.287848243695993 ], [ 112.790240782560417, -7.28770009373599 ] ] ] ] } },
{ "type": "Feature", "properties": { "id": 56, "Id": 0, "Luas": 39.138967167300002 }, "geometry": { "type": "MultiPolygon", "coordinates": [ [ [ [ 112.790561167541824, -7.28787221536179 ], [ 112.790560311194497, -7.287849635933823 ], [ 112.790580630674938, -7.287850320993428 ], [ 112.790580922793893, -7.287827354258443 ], [ 112.790619264818375, -7.287829498990105 ], [ 112.790617255203315, -7.287902614037177 ], [ 112.790580444968697, -7.287900080481671 ], [ 112.790579953706967, -7.28787290649268 ], [ 112.790561167541824, -7.28787221536179 ] ] ] ] } },
{ "type": "Feature", "properties": { "id": 57, "Id": 0, "Luas": 40.316388867400001 }, "geometry": { "type": "MultiPolygon", "coordinates": [ [ [ [ 112.790568188060675, -7.287709514714901 ], [ 112.790588889343439, -7.287709815504217 ], [ 112.79058989795675, -7.287674214864046 ], [ 112.790624782406951, -7.287674459491076 ], [ 112.790624338027072, -7.287755606292469 ], [ 112.790585608119585, -7.287752314816728 ], [ 112.79058628356843, -7.287729346563857 ], [ 112.790567111040133, -7.287727891442366 ], [ 112.790568188060675, -7.287709514714901 ] ] ] ] } },
{ "type": "Feature", "properties": { "id": 58, "Id": 0, "Luas": 58.447249516699998 }, "geometry": { "type": "MultiPolygon", "coordinates": [ [ [ [ 112.791230808564663, -7.287667849014026 ], [ 112.79125994155055, -7.287667733614565 ], [ 112.791255245586342, -7.287836549156401 ], [ 112.791236844278188, -7.287836239288474 ], [ 112.791237128760145, -7.287811358793808 ], [ 112.79122485767364, -7.287810259123167 ], [ 112.791230808564663, -7.287667849014026 ] ] ] ] } },
{ "type": "Feature", "properties": { "id": 59, "Id": 0, "Luas": 12.184612174 }, "geometry": { "type": "MultiPolygon", "coordinates": [ [ [ [ 112.791753356796519, -7.288961629908805 ], [ 112.791753800951028, -7.288928710841776 ], [ 112.791784662036548, -7.288929354059387 ], [ 112.791782686086776, -7.288962661955785 ], [ 112.791753356796519, -7.288961629908805 ] ] ] ] } },
{ "type": "Feature", "properties": { "id": 60, "Id": 0, "Luas": 53.048493206000003 }, "geometry": { "type": "MultiPolygon", "coordinates": [ [ [ [ 112.795786053290655, -7.285484839094409 ], [ 112.795785644837977, -7.285382261407423 ], [ 112.795800977872389, -7.28538220053569 ], [ 112.795800304189612, -7.2854055514855 ], [ 112.795837491371799, -7.285406552126639 ], [ 112.795835884139223, -7.285484258504015 ], [ 112.795786053290655, -7.285484839094409 ] ] ] ] } },
{ "type": "Feature", "properties": { "id": 61, "Id": 0, "Luas": 26.227651034200001 }, "geometry": { "type": "MultiPolygon", "coordinates": [ [ [ [ 112.795803738928413, -7.285209182681522 ], [ 112.795838233669869, -7.285207897463605 ], [ 112.79583836016829, -7.285239665925733 ], [ 112.795842964649282, -7.285240795921732 ], [ 112.795843407414409, -7.285255721749571 ], [ 112.795818489716908, -7.285255437913935 ], [ 112.795817841942863, -7.28528529565713 ], [ 112.795803275563429, -7.285285353485061 ], [ 112.795803738928413, -7.285209182681522 ] ] ] ] } },
{ "type": "Feature", "properties": { "id": 62, "Id": 0, "Luas": 210.575297922 }, "geometry": { "type": "MultiPolygon", "coordinates": [ [ [ [ 112.795130648152536, -7.285399788832488 ], [ 112.795128051249691, -7.285469652609878 ], [ 112.795101218424236, -7.285469759096431 ], [ 112.795101065334592, -7.285310914820928 ], [ 112.795116879434161, -7.285311330512351 ], [ 112.795116957512818, -7.285330946588571 ], [ 112.795132303881743, -7.285334234826071 ], [ 112.795130900688179, -7.285342852466485 ], [ 112.795361398266266, -7.28534767906176 ], [ 112.795362096456302, -7.285402697853935 ], [ 112.795333345103828, -7.285402333519647 ], [ 112.795130648152536, -7.285399788832488 ] ] ] ] } },
{ "type": "Feature", "properties": { "id": 63, "Id": 0, "Luas": 91.913266238600002 }, "geometry": { "type": "MultiPolygon", "coordinates": [ [ [ [ 112.795200993278897, -7.285135884581984 ], [ 112.795202299347309, -7.285102866457692 ], [ 112.7954347115178, -7.285107206998452 ], [ 112.795434358066984, -7.285138785993261 ], [ 112.795200993278897, -7.285135884581984 ] ] ] ] } },
{ "type": "Feature", "properties": { "id": 64, "Id": 0, "Luas": 159.28992328699999 }, "geometry": { "type": "MultiPolygon", "coordinates": [ [ [ [ 112.795120974021344, -7.285136202133832 ], [ 112.795429614692566, -7.285138727020358 ], [ 112.795429154000701, -7.28515555234116 ], [ 112.795370619160195, -7.285154490700744 ], [ 112.795300716414118, -7.285154442734659 ], [ 112.795218303869461, -7.285154386170701 ], [ 112.79520616935622, -7.285154377840871 ], [ 112.795134460884256, -7.28515385120523 ], [ 112.795134625398276, -7.285315566124183 ], [ 112.7954283736387, -7.285320620123416 ], [ 112.795429390998805, -7.285335447984562 ], [ 112.795132303881743, -7.285334234826071 ], [ 112.795116957512818, -7.285330946588571 ], [ 112.795116879434161, -7.285311330512334 ], [ 112.795120974021344, -7.285136202133832 ] ] ] ] } },
{ "type": "Feature", "properties": { "id": 65, "Id": 0, "Luas": 131.99847182 }, "geometry": { "type": "MultiPolygon", "coordinates": [ [ [ [ 112.797641410204164, -7.285039785457381 ], [ 112.797707346710609, -7.285040671703593 ], [ 112.797707624767867, -7.285014260280882 ], [ 112.797972137407285, -7.285017802125433 ], [ 112.797972242690719, -7.285044212020948 ], [ 112.798037035314934, -7.285046633797824 ], [ 112.798037834009193, -7.285054668544559 ], [ 112.797641449868962, -7.285049737014024 ], [ 112.797641410204164, -7.285039785457381 ] ] ] ] } },
{ "type": "Feature", "properties": { "id": 66, "Id": 0, "Luas": 119.45728418500001 }, "geometry": { "type": "MultiPolygon", "coordinates": [ [ [ [ 112.797449731625903, -7.285276996050658 ], [ 112.797453684203234, -7.285066463292163 ], [ 112.797460879178601, -7.285068348494446 ], [ 112.797461803169725, -7.2850597327617 ], [ 112.797506849604602, -7.285060989111329 ], [ 112.797505755364995, -7.285147114069654 ], [ 112.797502880425228, -7.285147125493608 ], [ 112.797502007919945, -7.285168659113178 ], [ 112.797559987780247, -7.285168907166258 ], [ 112.797559911504038, -7.285149769556579 ], [ 112.797585784053965, -7.285149188296783 ], [ 112.797584951598353, -7.2851807691605 ], [ 112.797523611920099, -7.28517909911842 ], [ 112.797513547723497, -7.285178660662475 ], [ 112.797480615578493, -7.285211325975844 ], [ 112.797462403810215, -7.285210441446329 ], [ 112.797460750324902, -7.285276473818984 ], [ 112.797449731625903, -7.285276996050658 ] ] ] ] } },
{ "type": "Feature", "properties": { "id": 67, "Id": 0, "Luas": 44.7777553508 }, "geometry": { "type": "MultiPolygon", "coordinates": [ [ [ [ 112.797349926950474, -7.284797365867872 ], [ 112.797349801116013, -7.284765788807669 ], [ 112.797468156521646, -7.284766275451545 ], [ 112.797467320238468, -7.284796899436844 ], [ 112.797349926950474, -7.284797365867872 ] ] ] ] } },
{ "type": "Feature", "properties": { "id": 68, "Id": 0, "Luas": 57.329863760800002 }, "geometry": { "type": "MultiPolygon", "coordinates": [ [ [ [ 112.797470969575713, -7.283993220122928 ], [ 112.797474698081714, -7.283870722656338 ], [ 112.797523769682201, -7.283872058730921 ], [ 112.797522709697702, -7.283894645680939 ], [ 112.797506307591988, -7.283914997035446 ], [ 112.797507388436756, -7.28399384094796 ], [ 112.797470969575713, -7.283993220122928 ] ] ] ] } },
{ "type": "Feature", "properties": { "id": 69, "Id": 0, "Luas": 64.862136882599998 }, "geometry": { "type": "MultiPolygon", "coordinates": [ [ [ [ 112.797885305398466, -7.283885932535223 ], [ 112.797885605929622, -7.283961334707976 ], [ 112.797959976927473, -7.283962570195937 ], [ 112.797961977854229, -7.283887541638518 ], [ 112.797991112013662, -7.283887808617418 ], [ 112.797991049071669, -7.283968188086719 ], [ 112.797855344674005, -7.283966813575437 ], [ 112.797854637940929, -7.283885671642393 ], [ 112.797885305398466, -7.283885932535223 ] ] ] ] } },
{ "type": "Feature", "properties": { "id": 70, "Id": 0, "Luas": 56.650143002299998 }, "geometry": { "type": "MultiPolygon", "coordinates": [ [ [ [ 112.797657242769731, -7.28389066633611 ], [ 112.797675643856564, -7.283890975980948 ], [ 112.797675700294718, -7.283905137811987 ], [ 112.797709820725032, -7.283906150513071 ], [ 112.797709759709647, -7.283890840425738 ], [ 112.797728539543996, -7.283890000288752 ], [ 112.797728863377671, -7.283875071430627 ], [ 112.797902513795307, -7.283875529680598 ], [ 112.797901395859299, -7.283883572045398 ], [ 112.797854637940929, -7.283885671642393 ], [ 112.797854711232176, -7.283894086428245 ], [ 112.797733154688217, -7.283893809533041 ], [ 112.797732500919864, -7.283922136240504 ], [ 112.797656599673971, -7.283921672309992 ], [ 112.797657242769731, -7.28389066633611 ] ] ] ] } },
{ "type": "Feature", "properties": { "id": 71, "Id": 0, "Luas": 25.603391562599999 }, "geometry": { "type": "MultiPolygon", "coordinates": [ [ [ [ 112.797916412727659, -7.283876335654266 ], [ 112.798066196626095, -7.283875740408347 ], [ 112.798067425552603, -7.283895543259715 ], [ 112.797991106171537, -7.283895269066449 ], [ 112.797991112013662, -7.283887808617418 ], [ 112.797992057737602, -7.283884647104036 ], [ 112.79791673225742, -7.283884372306762 ], [ 112.797916412727659, -7.283876335654266 ] ] ] ] } },
{ "type": "Feature", "properties": { "id": 72, "Id": 0, "Luas": 166.31417674400001 }, "geometry": { "type": "MultiPolygon", "coordinates": [ [ [ [ 112.798261413876062, -7.282206426091839 ], [ 112.798262234888455, -7.282171974595166 ], [ 112.798656110272091, -7.282173279958473 ], [ 112.798658164209201, -7.282207720021806 ], [ 112.798261413876062, -7.282206426091839 ] ] ] ] } },
{ "type": "Feature", "properties": { "id": 73, "Id": 0, "Luas": 145.43879891899999 }, "geometry": { "type": "MultiPolygon", "coordinates": [ [ [ [ 112.798262808858993, -7.282315985070811 ], [ 112.798656671017199, -7.282313941322704 ], [ 112.798656775919738, -7.282340255523394 ], [ 112.798458870322904, -7.282337214511068 ], [ 112.798457694138037, -7.282402766512684 ], [ 112.79840498916397, -7.282403454421394 ], [ 112.798405168908602, -7.282328337424923 ], [ 112.798317966802912, -7.282329640863573 ], [ 112.798317999221268, -7.282337774345311 ], [ 112.798263858697169, -7.282338946388276 ], [ 112.798262808858993, -7.282315985070811 ] ] ] ] } },
{ "type": "Feature", "properties": { "id": 74, "Id": 0, "Luas": 150.236187594 }, "geometry": { "type": "MultiPolygon", "coordinates": [ [ [ [ 112.796823542962528, -7.280243055739222 ], [ 112.796881041153256, -7.280242827495869 ], [ 112.796876833249669, -7.28048570444784 ], [ 112.79683716633447, -7.280487584327317 ], [ 112.796837925415204, -7.280389403765149 ], [ 112.796821248648442, -7.280388895827548 ], [ 112.796823542962528, -7.280243055739222 ] ] ] ] } },
{ "type": "Feature", "properties": { "id": 75, "Id": 0, "Luas": 30.6255092697 }, "geometry": { "type": "MultiPolygon", "coordinates": [ [ [ [ 112.796685800907383, -7.280403595543196 ], [ 112.796726437551314, -7.280404582518186 ], [ 112.796723505757996, -7.280534732044909 ], [ 112.796716221124782, -7.2805343782023 ], [ 112.796717808586763, -7.280451696065208 ], [ 112.796686374701594, -7.280451438078932 ], [ 112.796685800907383, -7.280403595543196 ] ] ] ] } },
{ "type": "Feature", "properties": { "id": 76, "Id": 0, "Luas": 59.221892617000002 }, "geometry": { "type": "MultiPolygon", "coordinates": [ [ [ [ 112.795765441037332, -7.280745606468709 ], [ 112.795767924144457, -7.280647131944242 ], [ 112.795811042139789, -7.280645525531103 ], [ 112.795811569518264, -7.280705807931003 ], [ 112.795821053307918, -7.280704909096724 ], [ 112.795821505295379, -7.280746245240715 ], [ 112.795765441037332, -7.280745606468709 ] ] ] ] } },
{ "type": "Feature", "properties": { "id": 77, "Id": 0, "Luas": 79.257831007600004 }, "geometry": { "type": "MultiPolygon", "coordinates": [ [ [ [ 112.796079486158106, -7.280674299627902 ], [ 112.796183465049964, -7.280674604690114 ], [ 112.796184608068344, -7.280721009635021 ], [ 112.796241388563971, -7.280721023530528 ], [ 112.796240519763245, -7.280743514045661 ], [ 112.796141094709782, -7.280743669377842 ], [ 112.796139045756789, -7.280710425354092 ], [ 112.796079147913261, -7.280709706143005 ], [ 112.796079486158106, -7.280674299627902 ] ] ] ] } },
{ "type": "Feature", "properties": { "id": 78, "Id": 0, "Luas": 121.786657586 }, "geometry": { "type": "MultiPolygon", "coordinates": [ [ [ [ 112.796180276531416, -7.28053562812406 ], [ 112.796251673045973, -7.280536062471953 ], [ 112.796250543503589, -7.280673620823618 ], [ 112.796177702091882, -7.280674587782869 ], [ 112.796180276531416, -7.28053562812406 ] ] ] ] } },
{ "type": "Feature", "properties": { "id": 79, "Id": 0, "Luas": 71.438314918000003 }, "geometry": { "type": "MultiPolygon", "coordinates": [ [ [ [ 112.795321801787239, -7.279942360843334 ], [ 112.795307425333803, -7.279941939412089 ], [ 112.795305965774531, -7.279876158532637 ], [ 112.795318117530954, -7.279859364641862 ], [ 112.79537897168467, -7.279859601739979 ], [ 112.795379370177486, -7.279899550607306 ], [ 112.79539063119195, -7.279899745168712 ], [ 112.795390526744725, -7.27993371542456 ], [ 112.795321532712535, -7.279934945958904 ], [ 112.795321801787239, -7.279942360843334 ] ] ] ] } },
{ "type": "Feature", "properties": { "id": 80, "Id": 0, "Luas": 87.02869387 }, "geometry": { "type": "MultiPolygon", "coordinates": [ [ [ [ 112.795807184558356, -7.280001198482569 ], [ 112.795771483955875, -7.28000038321353 ], [ 112.795769738394128, -7.279983165996767 ], [ 112.795738820742244, -7.279980178732864 ], [ 112.795736245094361, -7.279934975578091 ], [ 112.795721630020012, -7.279934794330813 ], [ 112.795720352191125, -7.279914704567518 ], [ 112.7957455085986, -7.279914843998145 ], [ 112.795745405804638, -7.279889008193252 ], [ 112.795803617952529, -7.279887581144532 ], [ 112.795807184558356, -7.280001198482569 ] ] ] ] } },
{ "type": "Feature", "properties": { "id": 81, "Id": 0, "Luas": 99.151407967500006 }, "geometry": { "type": "MultiPolygon", "coordinates": [ [ [ [ 112.794768534439399, -7.279938829345503 ], [ 112.79486139063421, -7.279937599971678 ], [ 112.794862602438897, -7.280025438331024 ], [ 112.794769742801464, -7.280025806515551 ], [ 112.794768534439399, -7.279938829345503 ] ] ] ] } },
{ "type": "Feature", "properties": { "id": 82, "Id": 0, "Luas": 120.92110879499999 }, "geometry": { "type": "MultiPolygon", "coordinates": [ [ [ [ 112.794667304470096, -7.279930905684728 ], [ 112.79466980986524, -7.279982568206761 ], [ 112.794686198001273, -7.279982790303075 ], [ 112.794685798809596, -7.280027000541091 ], [ 112.794569078536611, -7.280027750352643 ], [ 112.794568606134916, -7.279981247013636 ], [ 112.79457838083394, -7.279981208262846 ], [ 112.794579043558528, -7.279930968524187 ], [ 112.794667304470096, -7.279930905684728 ] ] ] ] } },
{ "type": "Feature", "properties": { "id": 83, "Id": 0, "Luas": 110.658991489 }, "geometry": { "type": "MultiPolygon", "coordinates": [ [ [ [ 112.794352897944705, -7.279742566751869 ], [ 112.794443170126073, -7.279742208923556 ], [ 112.794442994602306, -7.279842683849924 ], [ 112.794349837218576, -7.279840469496297 ], [ 112.794352222636221, -7.279789648784719 ], [ 112.794352897944705, -7.279742566751869 ] ] ] ] } },
{ "type": "Feature", "properties": { "id": 84, "Id": 0, "Luas": 119.72820203800001 }, "geometry": { "type": "MultiPolygon", "coordinates": [ [ [ [ 112.793993860952483, -7.279605207695766 ], [ 112.793993523509656, -7.279701138024292 ], [ 112.793943693626673, -7.279701813944562 ], [ 112.793943164081767, -7.279689137148639 ], [ 112.793894767850844, -7.279688850484107 ], [ 112.793896572244421, -7.279600330294826 ], [ 112.793949285584858, -7.279601795975663 ], [ 112.793949471915695, -7.279588398669556 ], [ 112.793993555769575, -7.279588702420344 ], [ 112.793993860952483, -7.279605207695766 ] ] ] ] } },
{ "type": "Feature", "properties": { "id": 85, "Id": 0, "Luas": 68.888242609299994 }, "geometry": { "type": "MultiPolygon", "coordinates": [ [ [ [ 112.791913186868584, -7.278670807495646 ], [ 112.7919508424566, -7.278669223111927 ], [ 112.791951165273318, -7.278678120992591 ], [ 112.791981932479317, -7.278679434565874 ], [ 112.791983350242276, -7.278746890314755 ], [ 112.791948274088696, -7.278746455006101 ], [ 112.79194802420335, -7.278755929292706 ], [ 112.791911807201572, -7.278757795053816 ], [ 112.791912324066871, -7.278743152457058 ], [ 112.791901116484496, -7.278744345093437 ], [ 112.791901610559691, -7.278723961194203 ], [ 112.791913684032451, -7.278723626339745 ], [ 112.791913186868584, -7.278670807495646 ] ] ] ] } },
{ "type": "Feature", "properties": { "id": 86, "Id": 0, "Luas": 35.575647979800003 }, "geometry": { "type": "MultiPolygon", "coordinates": [ [ [ [ 112.791920755115044, -7.278316103013182 ], [ 112.791920093649296, -7.278270174489768 ], [ 112.79191051348198, -7.278270930078435 ], [ 112.791910582139096, -7.278227869361483 ], [ 112.791947478645909, -7.278228201788532 ], [ 112.791945294645174, -7.278281557538229 ], [ 112.791952002756403, -7.278281530989597 ], [ 112.791952380969704, -7.278316456297483 ], [ 112.791920755115044, -7.278316103013182 ] ] ] ] } },
{ "type": "Feature", "properties": { "id": 87, "Id": 0, "Luas": 139.450603745 }, "geometry": { "type": "MultiPolygon", "coordinates": [ [ [ [ 112.795784409783835, -7.276018357337112 ], [ 112.795785569446608, -7.275948499265818 ], [ 112.795755862312859, -7.275948617051469 ], [ 112.795755312771007, -7.275930916637462 ], [ 112.795788377739825, -7.275931742435461 ], [ 112.795787643646989, -7.275867633254053 ], [ 112.795854254623663, -7.275869761386176 ], [ 112.795853062623621, -7.275931485960159 ], [ 112.795884695857183, -7.275933752773277 ], [ 112.795883825086449, -7.275955764853432 ], [ 112.795855072443132, -7.275954921964183 ], [ 112.795853895667278, -7.276020474065049 ], [ 112.795784409783835, -7.276018357337112 ] ] ] ] } },
{ "type": "Feature", "properties": { "id": 88, "Id": 0, "Luas": 204.88213019400001 }, "geometry": { "type": "MultiPolygon", "coordinates": [ [ [ [ 112.797021506439961, -7.276580756118582 ], [ 112.797094269856871, -7.276563626014664 ], [ 112.797147248115181, -7.276776229494957 ], [ 112.797071424217052, -7.276794902793631 ], [ 112.797021506439961, -7.276580756118582 ] ] ] ] } },
{ "type": "Feature", "properties": { "id": 89, "Id": 0, "Luas": 265.16000053900001 }, "geometry": { "type": "MultiPolygon", "coordinates": [ [ [ [ 112.794587469781817, -7.282464245782704 ], [ 112.794552641837413, -7.28250218134274 ], [ 112.79431929286514, -7.282261968528768 ], [ 112.794360353631987, -7.282224965169656 ], [ 112.794405337231169, -7.282270717875294 ], [ 112.794460471200139, -7.28221810912329 ], [ 112.794499208673514, -7.282259580547505 ], [ 112.794440250985176, -7.282314596709986 ], [ 112.794587469781817, -7.282464245782704 ] ] ] ] } },
{ "type": "Feature", "properties": { "id": 90, "Id": 0, "Luas": 501.06229245200001 }, "geometry": { "type": "MultiPolygon", "coordinates": [ [ [ [ 112.794791183638779, -7.281983952637793 ], [ 112.794779163406844, -7.281971187455966 ], [ 112.794765302112054, -7.281955740693988 ], [ 112.794748248714285, -7.281932842792577 ], [ 112.794724797409984, -7.28189159783623 ], [ 112.794709699373072, -7.281854338719469 ], [ 112.794704122838993, -7.28182565391756 ], [ 112.794699976916732, -7.281795241027115 ], [ 112.794700178774846, -7.281773710038999 ], [ 112.794702958929236, -7.281749872272985 ], [ 112.794707174261248, -7.281725454677257 ], [ 112.794714536022568, -7.28169700563572 ], [ 112.794726770307506, -7.281664805372464 ], [ 112.794738183219096, -7.281642942856438 ], [ 112.794749328048084, -7.28162596157927 ], [ 112.794765919242053, -7.281604939735224 ], [ 112.794743683010864, -7.281580052899379 ], [ 112.794778630311285, -7.281548049633525 ], [ 112.794800283564996, -7.28157092929543 ], [ 112.794830077696801, -7.281544400776621 ], [ 112.794851303012891, -7.281531972627452 ], [ 112.794875980516338, -7.281520104924899 ], [ 112.794895791206727, -7.281513423767265 ], [ 112.794918778011649, -7.281510174842192 ], [ 112.794940334207055, -7.281508654004676 ], [ 112.794958155289095, -7.281507722118103 ], [ 112.794999857624276, -7.28151157568995 ], [ 112.795036118165527, -7.281520618085387 ], [ 112.795060875599418, -7.281528844895105 ], [ 112.795091112512978, -7.28154135600635 ], [ 112.795116182564783, -7.281555897092951 ], [ 112.795134348240168, -7.281569317287501 ], [ 112.795153098037048, -7.281585031716922 ], [ 112.795175917264828, -7.281611925698281 ], [ 112.795142392610245, -7.281640191447923 ], [ 112.795095079452921, -7.281599041163142 ], [ 112.795068863998367, -7.281585652895294 ], [ 112.795041498576751, -7.281572269186689 ], [ 112.795024513704334, -7.28156659517072 ], [ 112.795004657337174, -7.281561793750266 ], [ 112.79498883271107, -7.281558698753115 ], [ 112.794972727444502, -7.281557327283195 ], [ 112.794956052903302, -7.281557393416117 ], [ 112.794940823815764, -7.281559463299623 ], [ 112.794923586850828, -7.281562689422469 ], [ 112.794906070386602, -7.281567926137146 ], [ 112.794884051295696, -7.281575946141202 ], [ 112.794870847211968, -7.281581165752147 ], [ 112.794858228008181, -7.281588870975792 ], [ 112.794845801226586, -7.281596766815501 ], [ 112.794831088970739, -7.281608307928005 ], [ 112.794813903384792, -7.281624451955429 ], [ 112.794800352514073, -7.281638859153052 ], [ 112.794788715212178, -7.281652493243952 ], [ 112.794777285556535, -7.281670145479475 ], [ 112.79476644915357, -7.28169238846876 ], [ 112.794755829531113, -7.281720946119878 ], [ 112.794750917886063, -7.281738955265517 ], [ 112.794748303133971, -7.281756189784578 ], [ 112.794746822365454, -7.281769400838339 ], [ 112.794746483192682, -7.281780502190972 ], [ 112.794746934263628, -7.281797533172337 ], [ 112.794748902641444, -7.281810539168202 ], [ 112.79475357559501, -7.281828893062598 ], [ 112.794759398518352, -7.281847242396275 ], [ 112.794765410058957, -7.281864825463947 ], [ 112.794771024574899, -7.281878965276121 ], [ 112.79478009661166, -7.281895005170393 ], [ 112.794789157230497, -7.281908174418098 ], [ 112.794802447345603, -7.281924580341925 ], [ 112.794826511617927, -7.281951278024248 ], [ 112.794791183638779, -7.281983952637793 ] ] ] ] } },
{ "type": "Feature", "properties": { "id": 91, "Id": 0, "Luas": 74.777927347100004 }, "geometry": { "type": "MultiPolygon", "coordinates": [ [ [ [ 112.795783842767477, -7.279320272445588 ], [ 112.795785972140379, -7.27927739502373 ], [ 112.795930123552566, -7.27928256457519 ], [ 112.795928756266292, -7.279324290695137 ], [ 112.795783842767477, -7.279320272445588 ] ] ] ] } },
{ "type": "Feature", "properties": { "id": 92, "Id": 0, "Luas": 53.353153322099999 }, "geometry": { "type": "MultiPolygon", "coordinates": [ [ [ [ 112.795766994032761, -7.279806442837457 ], [ 112.795767640368368, -7.279776202335902 ], [ 112.795916391795529, -7.279781353605355 ], [ 112.795916504497214, -7.279809677300058 ], [ 112.795766994032761, -7.279806442837457 ] ] ] ] } },
{ "type": "Feature", "properties": { "id": 93, "Id": 0, "Luas": 138.65535125100001 }, "geometry": { "type": "MultiPolygon", "coordinates": [ [ [ [ 112.796538211119255, -7.278834046770383 ], [ 112.796541207192021, -7.278744086619775 ], [ 112.796669628930402, -7.27874596925372 ], [ 112.796670701486704, -7.27877467188753 ], [ 112.796649137828766, -7.278774279011846 ], [ 112.79665118963139, -7.278808240689846 ], [ 112.79667036134893, -7.278809599953578 ], [ 112.7966714415236, -7.278840216349704 ], [ 112.796538211119255, -7.278834046770383 ] ] ] ] } },
{ "type": "Feature", "properties": { "id": 94, "Id": 0, "Luas": 157.738610744 }, "geometry": { "type": "MultiPolygon", "coordinates": [ [ [ [ 112.799260901879421, -7.278334811457169 ], [ 112.799264945870988, -7.278147243960642 ], [ 112.799285547359304, -7.278146683646709 ], [ 112.799286536166818, -7.278154334877517 ], [ 112.799337803173259, -7.278153652700232 ], [ 112.799336258432845, -7.27824695610112 ], [ 112.799330029498265, -7.278246980854862 ], [ 112.799327990355962, -7.278336458640633 ], [ 112.799260901879421, -7.278334811457169 ] ] ] ] } },
{ "type": "Feature", "properties": { "id": 95, "Id": 0, "Luas": 277.85673848599998 }, "geometry": { "type": "MultiPolygon", "coordinates": [ [ [ [ 112.798977257726804, -7.278218718877008 ], [ 112.79897965216756, -7.278098140570701 ], [ 112.798654743535948, -7.278087948614893 ], [ 112.79865299538173, -7.278009968588139 ], [ 112.7987012254695, -7.277968630498984 ], [ 112.798698266016601, -7.27806768092186 ], [ 112.79905525089805, -7.278071047136597 ], [ 112.799054402601442, -7.278218890806673 ], [ 112.798977257726804, -7.278218718877008 ] ] ] ] } },
{ "type": "Feature", "properties": { "id": 96, "Id": 0, "Luas": 298.06869648499998 }, "geometry": { "type": "MultiPolygon", "coordinates": [ [ [ [ 112.798945371210806, -7.277768131977662 ], [ 112.798923835206651, -7.27775061066498 ], [ 112.798916193233964, -7.277756765154554 ], [ 112.798773000874419, -7.277607292824251 ], [ 112.798820340235039, -7.277558877247968 ], [ 112.798851106371757, -7.27758401706377 ], [ 112.798880128781846, -7.277556343185871 ], [ 112.799014866785214, -7.277700490454163 ], [ 112.798945371210806, -7.277768131977662 ] ] ] ] } }
]
}
