{
"type": "FeatureCollection",
"name": "Urban Farming",
"crs": { "type": "name", "properties": { "name": "urn:ogc:def:crs:OGC:1.3:CRS84" } },
"features": [
{ "type": "Feature", "properties": { "Id": 0, "Luas": 2858.33286886 }, "geometry": { "type": "MultiPolygon", "coordinates": [ [ [ [ 112.798082150889883, -7.284657529308637 ], [ 112.798097451455448, -7.284649334883221 ], [ 112.79811611183392, -7.284642562446208 ], [ 112.798136217308937, -7.284637698055358 ], [ 112.79815825085133, -7.284635696686099 ], [ 112.798178845018128, -7.284633222589462 ], [ 112.79821574002203, -7.284633075935838 ], [ 112.798218374617861, -7.284572781058047 ], [ 112.798479232355774, -7.284567071259779 ], [ 112.798484148631346, -7.285078990636696 ], [ 112.798482369390285, -7.285238416445593 ], [ 112.798168827686411, -7.285244256027656 ], [ 112.798082150889883, -7.284657529308637 ] ] ] ] } }
]
}
