{
"type": "FeatureCollection",
"name": "ITS_Cokroaminoto",
"crs": { "type": "name", "properties": { "name": "urn:ogc:def:crs:OGC:1.3:CRS84" } },
"features": [
{ "type": "Feature", "properties": { "Id": 0, "LUAS": 3715.9292067900001 }, "geometry": { "type": "MultiPolygon", "coordinates": [ [ [ [ 112.739236628044978, -7.27758829943782 ], [ 112.7392235230827, -7.277833036076221 ], [ 112.739214310890404, -7.278021831262351 ], [ 112.739213435245119, -7.278134298098277 ], [ 112.739213006253323, -7.278205447312262 ], [ 112.738684799615186, -7.278103014105763 ], [ 112.738801716418067, -7.277479597873565 ], [ 112.739236628044978, -7.27758829943782 ] ] ] ] } }
]
}
