{
"type": "FeatureCollection",
"name": "ITS_Sukolilo",
"crs": { "type": "name", "properties": { "name": "urn:ogc:def:crs:OGC:1.3:CRS84" } },
"features": [
{ "type": "Feature", "properties": { "id": 1, "Id": 0, "Luas_m": 1382578.498661123 }, "geometry": { "type": "MultiPolygon", "coordinates": [ [ [ [ 112.799538510620408, -7.274199710659552 ], [ 112.799542931273891, -7.27453958221648 ], [ 112.79951379316843, -7.274538166933882 ], [ 112.799515747316477, -7.274643800383791 ], [ 112.799552549611292, -7.275029474255903 ], [ 112.799611771474446, -7.275269610994787 ], [ 112.799702104152672, -7.275621389420917 ], [ 112.799998146818581, -7.276644504359264 ], [ 112.800422839491077, -7.27817640238852 ], [ 112.800458611376627, -7.278311581502482 ], [ 112.80087051125048, -7.279754403991045 ], [ 112.800895805651066, -7.279870640697839 ], [ 112.799772027984957, -7.279879974849591 ], [ 112.799247178615829, -7.27932307896206 ], [ 112.799059907496485, -7.279501212444888 ], [ 112.79896101721107, -7.27956761072994 ], [ 112.797985756257944, -7.279556210420882 ], [ 112.797876264094029, -7.281576571133506 ], [ 112.799423048583677, -7.281590518603768 ], [ 112.799408626074126, -7.281808258170896 ], [ 112.799460259353069, -7.281870872402253 ], [ 112.79940275564222, -7.284743088663729 ], [ 112.800259236636009, -7.28475283744261 ], [ 112.800513255509685, -7.284747214467805 ], [ 112.80042617835889, -7.284918206199567 ], [ 112.800260930253259, -7.285177137638703 ], [ 112.80007715128491, -7.285422306707155 ], [ 112.800025759636654, -7.285585097080916 ], [ 112.798200149254242, -7.285881190798166 ], [ 112.79640969639847, -7.286208922591748 ], [ 112.79658733126324, -7.287514498712429 ], [ 112.795799470405228, -7.287636857753702 ], [ 112.795894851106198, -7.288192995532412 ], [ 112.795799806436193, -7.288213355733259 ], [ 112.795729624820268, -7.287762667652417 ], [ 112.795473935946518, -7.287800850816353 ], [ 112.795415008322294, -7.287403940557806 ], [ 112.795678134699344, -7.287364529511413 ], [ 112.795551059839966, -7.286425455295853 ], [ 112.794270242311796, -7.286648205942098 ], [ 112.793984843753705, -7.286935450159634 ], [ 112.793445423262227, -7.287132707737441 ], [ 112.792144098079632, -7.290622527285264 ], [ 112.791726835963459, -7.29059093350031 ], [ 112.791045169369255, -7.290519315803739 ], [ 112.789311605911919, -7.290305456444599 ], [ 112.789429816883185, -7.288983986225138 ], [ 112.789497471937366, -7.288264092720371 ], [ 112.789689619555119, -7.286550521623819 ], [ 112.790261755194379, -7.28056788149485 ], [ 112.790271986389271, -7.280393015483992 ], [ 112.790272409919709, -7.280354833517418 ], [ 112.790271489367527, -7.280340196595339 ], [ 112.790260685940979, -7.280301385549476 ], [ 112.790215397019722, -7.280115068592589 ], [ 112.790150193254789, -7.279839739369375 ], [ 112.790182036523134, -7.279822389249793 ], [ 112.790177943322703, -7.279805181243868 ], [ 112.79023359602246, -7.279774531750381 ], [ 112.790188415985227, -7.279691173086 ], [ 112.790156351843407, -7.279652832519346 ], [ 112.790152874056048, -7.279573327913154 ], [ 112.790078457587228, -7.279512189221638 ], [ 112.790064805414417, -7.279489921093812 ], [ 112.790040075984734, -7.279449357078163 ], [ 112.790000340024292, -7.279381378460141 ], [ 112.789983242229781, -7.279346357208817 ], [ 112.789966109422906, -7.279310536233491 ], [ 112.789954123057797, -7.279260346389403 ], [ 112.789948003775635, -7.279239701549292 ], [ 112.789946917044702, -7.279183153071014 ], [ 112.789950652357689, -7.279096419619206 ], [ 112.789972773794617, -7.278961145790015 ], [ 112.789954882617891, -7.278874845221253 ], [ 112.789939289495052, -7.27878214653959 ], [ 112.789932051957507, -7.2787176397568 ], [ 112.789927144652921, -7.278669504983259 ], [ 112.789920654634898, -7.278589239804059 ], [ 112.78990819364823, -7.278407930279021 ], [ 112.789842204003733, -7.27760062509239 ], [ 112.789804529062224, -7.276992951196729 ], [ 112.789736872610888, -7.276171050148674 ], [ 112.790446049751822, -7.275996489149083 ], [ 112.79060705949712, -7.275957204688 ], [ 112.791493906928252, -7.275752254136035 ], [ 112.791895321020561, -7.275674114317586 ], [ 112.792758730611482, -7.275499274498041 ], [ 112.792841679764507, -7.27548275506823 ], [ 112.793704736058942, -7.27531940697721 ], [ 112.794870733249269, -7.27503043003225 ], [ 112.795309911124363, -7.274928524350402 ], [ 112.796148018400601, -7.274735586956051 ], [ 112.796173982216715, -7.27472828889662 ], [ 112.796841255026237, -7.27454155260155 ], [ 112.797122347709717, -7.274471192785378 ], [ 112.797189118032875, -7.274455348423625 ], [ 112.79751334758619, -7.274381861089452 ], [ 112.797564813467289, -7.274310846567021 ], [ 112.797606829718077, -7.274273360900122 ], [ 112.797674738833194, -7.274240556963884 ], [ 112.797716139071895, -7.274232896992941 ], [ 112.798028276783924, -7.274213285836772 ], [ 112.7984472815847, -7.274196658024119 ], [ 112.798496856883119, -7.274196178376584 ], [ 112.799538510620408, -7.274199710659552 ] ], [ [ 112.793495946873904, -7.279217456542059 ], [ 112.794351639131307, -7.279244188948927 ], [ 112.794357408964217, -7.279155345578176 ], [ 112.794763814271022, -7.279175169115945 ], [ 112.795042917459739, -7.279185545322218 ], [ 112.79508048593776, -7.279186161878934 ], [ 112.796689189270495, -7.277701036681921 ], [ 112.795537306075659, -7.276476719493554 ], [ 112.794606392882343, -7.275511000052076 ], [ 112.792790680525528, -7.275811154913562 ], [ 112.792817418964077, -7.275883964734735 ], [ 112.792833066398586, -7.275897997910111 ], [ 112.792832817084729, -7.275955891250282 ], [ 112.792829342900092, -7.276046331901393 ], [ 112.792826099032794, -7.276074094795628 ], [ 112.792824461665688, -7.276144433309444 ], [ 112.792820628009096, -7.27626501768298 ], [ 112.792817998158853, -7.276326748039834 ], [ 112.792818566586163, -7.276349232901917 ], [ 112.792822909315802, -7.276356870897959 ], [ 112.792827269141668, -7.276368814868923 ], [ 112.792827303333908, -7.276377426819101 ], [ 112.792833615846519, -7.276398453594678 ], [ 112.792842862138997, -7.276434300680926 ], [ 112.792885171157607, -7.276591064520815 ], [ 112.792897843692288, -7.276645079108155 ], [ 112.792900750880392, -7.276653201234707 ], [ 112.792899997753096, -7.276704876726622 ], [ 112.792898135837973, -7.276839328314059 ], [ 112.792895290539391, -7.277088133144593 ], [ 112.792895200857615, -7.277186215577821 ], [ 112.792896712400292, -7.277204869110582 ], [ 112.792896955675701, -7.277213040059047 ], [ 112.792897898896882, -7.27721889254234 ], [ 112.792917079860487, -7.277241896987416 ], [ 112.792930191669058, -7.277242419212961 ], [ 112.792929141936639, -7.277296622089005 ], [ 112.792923914531485, -7.277420953444165 ], [ 112.792920121823826, -7.27755182430321 ], [ 112.792917715272779, -7.277669771546653 ], [ 112.793014246082663, -7.277677552461326 ], [ 112.792997104896173, -7.278187455718644 ], [ 112.793007552763868, -7.278604621968965 ], [ 112.793005303728123, -7.279003466047318 ], [ 112.793111510854118, -7.279106390410266 ], [ 112.793139141180148, -7.279139064622719 ], [ 112.793386969671118, -7.279140953655129 ], [ 112.793421507345812, -7.279150577198173 ], [ 112.793448029496219, -7.279168844573235 ], [ 112.793474583585336, -7.27919514976248 ], [ 112.793495946873904, -7.279217456542059 ] ] ] ] } },
{ "type": "Feature", "properties": { "id": 2, "Id": 0, "Luas_m": 10399.87658456713 }, "geometry": { "type": "MultiPolygon", "coordinates": [ [ [ [ 112.796112290986969, -7.290233715464575 ], [ 112.795938479366541, -7.289100230068524 ], [ 112.796899438463385, -7.288949035495684 ], [ 112.796977845741793, -7.289540226919747 ], [ 112.796631153505388, -7.289587349879362 ], [ 112.796491902074493, -7.290187207220648 ], [ 112.796112290986969, -7.290233715464575 ] ] ] ] } },
{ "type": "Feature", "properties": { "id": 3, "Id": 0, "Luas_m": 4610.8447493197164 }, "geometry": { "type": "MultiPolygon", "coordinates": [ [ [ [ 112.796487635095559, -7.289012016230373 ], [ 112.795938479366541, -7.289100230068524 ], [ 112.795801789450266, -7.28820882071467 ], [ 112.796128803362009, -7.288153211393862 ], [ 112.796150881360703, -7.288299222484381 ], [ 112.796138028700923, -7.288303885908174 ], [ 112.796154757839432, -7.288378596908625 ], [ 112.796162516861187, -7.288379322034965 ], [ 112.796172911807275, -7.28844026899126 ], [ 112.79620353370386, -7.288619809088968 ], [ 112.796231315350767, -7.288617315887098 ], [ 112.796243600898322, -7.288710987944161 ], [ 112.796442544143233, -7.288684716942389 ], [ 112.796487635095559, -7.289012016230373 ] ] ] ] } }
]
}
